start=new Date('2022-09-18T00:00:00.000Z').valueOf();
sats=[{"DECAY_DATE":null,"SITE":"AFETR","PERIAPSIS":"546.244","COUNTRY_CODE":"US","TLE_LINE2":"2 47554  53.0552 327.5375 0001474  78.4895 281.6259 15.06383373 89410","INCLINATION":"53.0552","MEAN_ANOMALY":"281.6259","EPOCH":"2022-09-17T21:02:55.620096","RCS_SIZE":"LARGE","SEMIMAJOR_AXIS":"6925.400","CLASSIFICATION_TYPE":"U","APOAPSIS":"548.285","MEAN_MOTION":"15.06383373","GP_ID":"212869629","LAUNCH_DATE":"2021-02-04","MEAN_MOTION_DDOT":"0.0000000000000","REV_AT_EPOCH":"8941","BSTAR":"-0.00005860100000","ELEMENT_SET_NO":"999","OBJECT_TYPE":"PAYLOAD","CENTER_NAME":"EARTH","NORAD_CAT_ID":"47554","RA_OF_ASC_NODE":"327.5375","EPHEMERIS_TYPE":"0","PERIOD":"95.593","MEAN_ELEMENT_THEORY":"SGP4","FILE":"3576621","TIME_SYSTEM":"UTC","OBJECT_ID":"2021-009G","TLE_LINE1":"1 47554U 21009G   22260.87703264 -.00001154  00000-0 -58601-4 0  9993","REF_FRAME":"TEME","ECCENTRICITY":"0.00014740","MEAN_MOTION_DOT":"-0.00001154","ARG_OF_PERICENTER":"78.4895","OBJECT_NAME":"STARLINK-1953"},{"MEAN_MOTION_DOT":"0.00001197","ARG_OF_PERICENTER":"75.0541","OBJECT_NAME":"STARLINK-1954","OBJECT_ID":"2021-009H","TLE_LINE1":"1 47555U 21009H   22260.85213447  .00001197  00000-0  99259-4 0  9990","REF_FRAME":"TEME","ECCENTRICITY":"0.00013280","EPHEMERIS_TYPE":"0","PERIOD":"95.592","FILE":"3576621","MEAN_ELEMENT_THEORY":"SGP4","TIME_SYSTEM":"UTC","ELEMENT_SET_NO":"999","BSTAR":"0.00009925900000","OBJECT_TYPE":"PAYLOAD","CENTER_NAME":"EARTH","NORAD_CAT_ID":"47555","RA_OF_ASC_NODE":"317.6461","MEAN_MOTION":"15.06401138","GP_ID":"212868407","REV_AT_EPOCH":"8955","LAUNCH_DATE":"2021-02-04","MEAN_MOTION_DDOT":"0.0000000000000","SEMIMAJOR_AXIS":"6925.345","CLASSIFICATION_TYPE":"U","APOAPSIS":"548.130","INCLINATION":"53.0547","MEAN_ANOMALY":"285.0595","EPOCH":"2022-09-17T20:27:04.418208","RCS_SIZE":"LARGE","DECAY_DATE":null,"SITE":"AFETR","PERIAPSIS":"546.290","COUNTRY_CODE":"US","TLE_LINE2":"2 47555  53.0547 317.6461 0001328  75.0541 285.0595 15.06401138 89556"},{"MEAN_MOTION_DOT":"-0.00002036","OBJECT_NAME":"STARLINK-1955","ARG_OF_PERICENTER":"77.2792","OBJECT_ID":"2021-009J","REF_FRAME":"TEME","TLE_LINE1":"1 47556U 21009J   22260.68811945 -.00002036  00000-0 -11789-3 0  9995","ECCENTRICITY":"0.00013370","EPHEMERIS_TYPE":"0","PERIOD":"95.593","TIME_SYSTEM":"UTC","MEAN_ELEMENT_THEORY":"SGP4","FILE":"3576621","ELEMENT_SET_NO":"999","BSTAR":"-0.00011789000000","OBJECT_TYPE":"PAYLOAD","NORAD_CAT_ID":"47556","CENTER_NAME":"EARTH","RA_OF_ASC_NODE":"338.4029","MEAN_MOTION":"15.06384675","GP_ID":"212868657","LAUNCH_DATE":"2021-02-04","MEAN_MOTION_DDOT":"0.0000000000000","REV_AT_EPOCH":"8924","CLASSIFICATION_TYPE":"U","SEMIMAJOR_AXIS":"6925.396","APOAPSIS":"548.186","INCLINATION":"53.0533","MEAN_ANOMALY":"282.8346","EPOCH":"2022-09-17T16:30:53.520480","RCS_SIZE":"LARGE","PERIAPSIS":"546.335","DECAY_DATE":null,"SITE":"AFETR","COUNTRY_CODE":"US","TLE_LINE2":"2 47556  53.0533 338.4029 0001337  77.2792 282.8346 15.06384675 89246"},{"OBJECT_NAME":"STARLINK-1956","ARG_OF_PERICENTER":"81.6300","MEAN_MOTION_DOT":"0.00000581","ECCENTRICITY":"0.00012590","TLE_LINE1":"1 47557U 21009K   22260.91663669  .00000581  00000-0  57900-4 0  9997","REF_FRAME":"TEME","OBJECT_ID":"2021-009K","MEAN_ELEMENT_THEORY":"SGP4","FILE":"3576621","TIME_SYSTEM":"UTC","PERIOD":"95.592","EPHEMERIS_TYPE":"0","RA_OF_ASC_NODE":"337.3534","CENTER_NAME":"EARTH","NORAD_CAT_ID":"47557","OBJECT_TYPE":"PAYLOAD","ELEMENT_SET_NO":"999","BSTAR":"0.00005790000000","LAUNCH_DATE":"2021-02-04","MEAN_MOTION_DDOT":"0.0000000000000","REV_AT_EPOCH":"8928","GP_ID":"212869406","MEAN_MOTION":"15.06398121","APOAPSIS":"548.091","SEMIMAJOR_AXIS":"6925.354","CLASSIFICATION_TYPE":"U","RCS_SIZE":"LARGE","EPOCH":"2022-09-17T21:59:57.410016","MEAN_ANOMALY":"278.4832","INCLINATION":"53.0562","TLE_LINE2":"2 47557  53.0562 337.3534 0001259  81.6300 278.4832 15.06398121 89281","COUNTRY_CODE":"US","SITE":"AFETR","DECAY_DATE":null,"PERIAPSIS":"546.347"},{"REF_FRAME":"TEME","TLE_LINE1":"1 47558U 21009L   22260.83093952  .00000541  00000-0  55220-4 0  9990","OBJECT_ID":"2021-009L","ECCENTRICITY":"0.00015600","ARG_OF_PERICENTER":"56.4055","OBJECT_NAME":"STARLINK-1957","MEAN_MOTION_DOT":"0.00000541","OBJECT_TYPE":"PAYLOAD","ELEMENT_SET_NO":"999","BSTAR":"0.00005522000000","RA_OF_ASC_NODE":"307.7576","NORAD_CAT_ID":"47558","CENTER_NAME":"EARTH","PERIOD":"95.592","EPHEMERIS_TYPE":"0","TIME_SYSTEM":"UTC","MEAN_ELEMENT_THEORY":"SGP4","FILE":"3576621","CLASSIFICATION_TYPE":"U","SEMIMAJOR_AXIS":"6925.351","APOAPSIS":"548.296","GP_ID":"212870130","MEAN_MOTION":"15.06399360","REV_AT_EPOCH":"8968","LAUNCH_DATE":"2021-02-04","MEAN_MOTION_DDOT":"0.0000000000000","COUNTRY_CODE":"US","PERIAPSIS":"546.135","DECAY_DATE":null,"SITE":"AFETR","TLE_LINE2":"2 47558  53.0554 307.7576 0001560  56.4055 303.7082 15.06399360 89681","EPOCH":"2022-09-17T19:56:33.174528","INCLINATION":"53.0554","MEAN_ANOMALY":"303.7082","RCS_SIZE":"LARGE"},{"OBJECT_TYPE":"PAYLOAD","ELEMENT_SET_NO":"999","BSTAR":"0.00001262900000","RA_OF_ASC_NODE":"299.7046","NORAD_CAT_ID":"47559","CENTER_NAME":"EARTH","PERIOD":"95.593","EPHEMERIS_TYPE":"0","TIME_SYSTEM":"UTC","FILE":"3576375","MEAN_ELEMENT_THEORY":"SGP4","REF_FRAME":"TEME","TLE_LINE1":"1 47559U 21009M   22260.39693229 -.00000093  00000-0  12629-4 0  9994","OBJECT_ID":"2021-009M","ECCENTRICITY":"0.00016210","ARG_OF_PERICENTER":"67.1476","OBJECT_NAME":"STARLINK-1958","MEAN_MOTION_DOT":"-0.00000093","COUNTRY_CODE":"US","PERIAPSIS":"546.136","DECAY_DATE":null,"SITE":"AFETR","TLE_LINE2":"2 47559  53.0545 299.7046 0001621  67.1476 292.9684 15.06385371 89761","EPOCH":"2022-09-17T09:31:34.949856","MEAN_ANOMALY":"292.9684","INCLINATION":"53.0545","RCS_SIZE":"LARGE","CLASSIFICATION_TYPE":"U","SEMIMAJOR_AXIS":"6925.393","APOAPSIS":"548.381","GP_ID":"212811435","MEAN_MOTION":"15.06385371","LAUNCH_DATE":"2021-02-04","MEAN_MOTION_DDOT":"0.0000000000000","REV_AT_EPOCH":"8976"},{"RA_OF_ASC_NODE":"299.1139","NORAD_CAT_ID":"47560","CENTER_NAME":"EARTH","OBJECT_TYPE":"PAYLOAD","BSTAR":"-0.00006500100000","ELEMENT_SET_NO":"999","TIME_SYSTEM":"UTC","FILE":"3576375","MEAN_ELEMENT_THEORY":"SGP4","PERIOD":"95.593","EPHEMERIS_TYPE":"0","ECCENTRICITY":"0.00014330","REF_FRAME":"TEME","TLE_LINE1":"1 47560U 21009N   22260.52130376 -.00001249  00000-0 -65001-4 0  9997","OBJECT_ID":"2021-009N","ARG_OF_PERICENTER":"95.2117","OBJECT_NAME":"STARLINK-1959","MEAN_MOTION_DOT":"-0.00001249","TLE_LINE2":"2 47560  53.0544 299.1139 0001433  95.2117 264.9035 15.06386217 89785","COUNTRY_CODE":"US","PERIAPSIS":"546.263","SITE":"AFETR","DECAY_DATE":null,"RCS_SIZE":"LARGE","EPOCH":"2022-09-17T12:30:40.644864","MEAN_ANOMALY":"264.9035","INCLINATION":"53.0544","APOAPSIS":"548.248","CLASSIFICATION_TYPE":"U","SEMIMAJOR_AXIS":"6925.391","LAUNCH_DATE":"2021-02-04","REV_AT_EPOCH":"8978","MEAN_MOTION_DDOT":"0.0000000000000","GP_ID":"212812185","MEAN_MOTION":"15.06386217"},{"ARG_OF_PERICENTER":"90.9249","OBJECT_NAME":"STARLINK-1960","MEAN_MOTION_DOT":"-0.00001044","TLE_LINE1":"1 47561U 21009P   22260.57569777 -.00001044  00000-0 -51183-4 0  9993","REF_FRAME":"TEME","OBJECT_ID":"2021-009P","ECCENTRICITY":"0.00012390","PERIOD":"95.593","EPHEMERIS_TYPE":"0","MEAN_ELEMENT_THEORY":"SGP4","FILE":"3576621","TIME_SYSTEM":"UTC","OBJECT_TYPE":"PAYLOAD","BSTAR":"-0.00005118300000","ELEMENT_SET_NO":"999","RA_OF_ASC_NODE":"318.8990","CENTER_NAME":"EARTH","NORAD_CAT_ID":"47561","GP_ID":"212869907","MEAN_MOTION":"15.06393674","LAUNCH_DATE":"2021-02-04","REV_AT_EPOCH":"8951","MEAN_MOTION_DDOT":"0.0000000000000","SEMIMAJOR_AXIS":"6925.368","CLASSIFICATION_TYPE":"U","APOAPSIS":"548.091","EPOCH":"2022-09-17T13:49:00.287328","MEAN_ANOMALY":"269.1882","INCLINATION":"53.0544","RCS_SIZE":"LARGE","COUNTRY_CODE":"US","DECAY_DATE":null,"SITE":"AFETR","PERIAPSIS":"546.375","TLE_LINE2":"2 47561  53.0544 318.8990 0001239  90.9249 269.1882 15.06393674 89515"},{"TLE_LINE2":"2 47562  53.0556 318.5315 0001613  54.9986 305.1154 15.06386490 89523","PERIAPSIS":"546.138","SITE":"AFETR","DECAY_DATE":null,"COUNTRY_CODE":"US","RCS_SIZE":"LARGE","INCLINATION":"53.0556","MEAN_ANOMALY":"305.1154","EPOCH":"2022-09-17T15:45:46.821888","APOAPSIS":"548.372","CLASSIFICATION_TYPE":"U","SEMIMAJOR_AXIS":"6925.390","LAUNCH_DATE":"2021-02-04","REV_AT_EPOCH":"8952","MEAN_MOTION_DDOT":"0.0000000000000","MEAN_MOTION":"15.06386490","GP_ID":"212869630","NORAD_CAT_ID":"47562","CENTER_NAME":"EARTH","RA_OF_ASC_NODE":"318.5315","ELEMENT_SET_NO":"999","BSTAR":"0.00000089243000","OBJECT_TYPE":"PAYLOAD","TIME_SYSTEM":"UTC","MEAN_ELEMENT_THEORY":"SGP4","FILE":"3576621","EPHEMERIS_TYPE":"0","PERIOD":"95.593","ECCENTRICITY":"0.00016130","OBJECT_ID":"2021-009Q","REF_FRAME":"TEME","TLE_LINE1":"1 47562U 21009Q   22260.65679192 -.00000268  00000-0  89243-6 0  9992","MEAN_MOTION_DOT":"-0.00000268","ARG_OF_PERICENTER":"54.9986","OBJECT_NAME":"STARLINK-1961"},{"MEAN_MOTION":"15.06386606","GP_ID":"212811935","MEAN_MOTION_DDOT":"0.0000000000000","LAUNCH_DATE":"2021-02-04","REV_AT_EPOCH":"8949","CLASSIFICATION_TYPE":"U","SEMIMAJOR_AXIS":"6925.390","APOAPSIS":"548.337","MEAN_ANOMALY":"283.6477","INCLINATION":"53.0569","EPOCH":"2022-09-17T11:31:01.072992","RCS_SIZE":"LARGE","PERIAPSIS":"546.172","SITE":"AFETR","DECAY_DATE":null,"COUNTRY_CODE":"US","TLE_LINE2":"2 47563  53.0569 319.3339 0001563  76.4686 283.6477 15.06386606 89496","MEAN_MOTION_DOT":"-0.00001693","OBJECT_NAME":"STARLINK-1962","ARG_OF_PERICENTER":"76.4686","OBJECT_ID":"2021-009R","REF_FRAME":"TEME","TLE_LINE1":"1 47563U 21009R   22260.47987353 -.00001693  00000-0 -94798-4 0  9997","ECCENTRICITY":"0.00015630","EPHEMERIS_TYPE":"0","PERIOD":"95.593","TIME_SYSTEM":"UTC","MEAN_ELEMENT_THEORY":"SGP4","FILE":"3576375","ELEMENT_SET_NO":"999","BSTAR":"-0.00009479800000","OBJECT_TYPE":"PAYLOAD","NORAD_CAT_ID":"47563","CENTER_NAME":"EARTH","RA_OF_ASC_NODE":"319.3339"}];
